{
  "type": "FeatureCollection",
  "features": [
    {
      "type": "Feature",
      "properties": {
        "norad_id": 41599,
        "name": "CARTOSAT-2C",
        "group": "resource",
        "lat": 81.25480449488187,
        "lon": -63.52648417420049,
        "alt_km": 498.9143711233919,
        "timestamp": "2025-12-26T18:39:31.929663+00:00",
        "meta_object_name": "CARTOSAT-2C",
        "meta_object_id": "2016-040A",
        "meta_epoch": "2025-12-26T15:05:00.747168",
        "meta_mean_motion": 15.19250913,
        "meta_eccentricity": 0.0010658,
        "meta_inclination": 97.4744,
        "meta_ra_of_asc_node": 57.7342,
        "meta_arg_of_pericenter": 18.8243,
        "meta_mean_anomaly": 341.3383,
        "meta_ephemeris_type": 0,
        "meta_classification_type": "U",
        "meta_norad_cat_id": 41599,
        "meta_element_set_no": 999,
        "meta_rev_at_epoch": 52751,
        "meta_bstar": 0.00044498743,
        "meta_mean_motion_dot": 9.328e-05,
        "meta_mean_motion_ddot": 0,
        "tle_line1": "1 41599U 16040A   25360.62848087  .00009328  00000+0  44499-3 0  9992",
        "tle_line2": "2 41599  97.4744  57.7342 0010658  18.8243 341.3383 15.19250913527510"
      },
      "geometry": {
        "type": "Point",
        "coordinates": [
          -63.52648417420049,
          81.25480449488187
        ]
      }
    },
    {
      "type": "Feature",
      "properties": {
        "norad_id": 41601,
        "name": "SKYSAT-C1",
        "group": "resource",
        "lat": 68.54854218651323,
        "lon": -124.83004372202414,
        "alt_km": 461.223493340045,
        "timestamp": "2025-12-26T18:39:31.929673+00:00",
        "meta_object_name": "SKYSAT-C1",
        "meta_object_id": "2016-040C",
        "meta_epoch": "2025-12-26T13:28:44.972832",
        "meta_mean_motion": 15.32839609,
        "meta_eccentricity": 7.932e-05,
        "meta_inclination": 96.9809,
        "meta_ra_of_asc_node": 36.796,
        "meta_arg_of_pericenter": 309.1958,
        "meta_mean_anomaly": 50.9214,
        "meta_ephemeris_type": 0,
        "meta_classification_type": "U",
        "meta_norad_cat_id": 41601,
        "meta_element_set_no": 999,
        "meta_rev_at_epoch": 53139,
        "meta_bstar": 0.00029988678,
        "meta_mean_motion_dot": 9.441e-05,
        "meta_mean_motion_ddot": 0,
        "tle_line1": "1 41601U 16040C   25360.56163163  .00009441  00000+0  29989-3 0  9997",
        "tle_line2": "2 41601  96.9809  36.7960 0000793 309.1958  50.9214 15.32839609531398"
      },
      "geometry": {
        "type": "Point",
        "coordinates": [
          -124.83004372202414,
          68.54854218651323
        ]
      }
    },
    {
      "type": "Feature",
      "properties": {
        "norad_id": 41603,
        "name": "LAPAN-A3",
        "group": "resource",
        "lat": -18.276747328979642,
        "lon": 175.44998146775595,
        "alt_km": 474.64148245292563,
        "timestamp": "2025-12-26T18:39:31.929684+00:00",
        "meta_object_name": "LAPAN-A3",
        "meta_object_id": "2016-040E",
        "meta_epoch": "2025-12-26T14:39:32.393376",
        "meta_mean_motion": 15.31666512,
        "meta_eccentricity": 0.00086379,
        "meta_inclination": 97.1437,
        "meta_ra_of_asc_node": 357.6633,
        "meta_arg_of_pericenter": 275.8769,
        "meta_mean_anomaly": 84.1488,
        "meta_ephemeris_type": 0,
        "meta_classification_type": "U",
        "meta_norad_cat_id": 41603,
        "meta_element_set_no": 999,
        "meta_rev_at_epoch": 52838,
        "meta_bstar": 0.00015289322,
        "meta_mean_motion_dot": 4.605e-05,
        "meta_mean_motion_ddot": 0,
        "tle_line1": "1 41603U 16040E   25360.61079159  .00004605  00000+0  15289-3 0  9991",
        "tle_line2": "2 41603  97.1437 357.6633 0008637 275.8769  84.1488 15.31666512528383"
      },
      "geometry": {
        "type": "Point",
        "coordinates": [
          175.44998146775595,
          -18.276747328979642
        ]
      }
    },
    {
      "type": "Feature",
      "properties": {
        "norad_id": 41604,
        "name": "BIROS",
        "group": "resource",
        "lat": -32.36374298706997,
        "lon": -151.6781650925945,
        "alt_km": 293.05137171600745,
        "timestamp": "2025-12-26T18:39:31.929695+00:00",
        "meta_object_name": "BIROS",
        "meta_object_id": "2016-040F",
        "meta_epoch": "2025-12-26T14:45:38.450304",
        "meta_mean_motion": 15.95497863,
        "meta_eccentricity": 0.000398,
        "meta_inclination": 97.0651,
        "meta_ra_of_asc_node": 32.6597,
        "meta_arg_of_pericenter": 120.7736,
        "meta_mean_anomaly": 239.3933,
        "meta_ephemeris_type": 0,
        "meta_classification_type": "U",
        "meta_norad_cat_id": 41604,
        "meta_element_set_no": 999,
        "meta_rev_at_epoch": 53093,
        "meta_bstar": 0.00064877469,
        "meta_mean_motion_dot": 0.00256097,
        "meta_mean_motion_ddot": 2.7500219e-05,
        "tle_line1": "1 41604U 16040F   25360.61502836  .00256097  27500-4  64877-3 0  9995",
        "tle_line2": "2 41604  97.0651  32.6597 0003980 120.7736 239.3933 15.95497863530932"
      },
      "geometry": {
        "type": "Point",
        "coordinates": [
          -151.6781650925945,
          -32.36374298706997
        ]
      }
    },
    {
      "type": "Feature",
      "properties": {
        "norad_id": 41727,
        "name": "GAOFEN-3",
        "group": "resource",
        "lat": 33.358753029366994,
        "lon": -168.26552689987486,
        "alt_km": 749.1242946060356,
        "timestamp": "2025-12-26T18:39:31.929706+00:00",
        "meta_object_name": "GAOFEN-3",
        "meta_object_id": "2016-049A",
        "meta_epoch": "2025-12-26T14:39:12.485952",
        "meta_mean_motion": 14.42216892,
        "meta_eccentricity": 0.00010804,
        "meta_inclination": 98.404,
        "meta_ra_of_asc_node": 5.9849,
        "meta_arg_of_pericenter": 54.2048,
        "meta_mean_anomaly": 305.9242,
        "meta_ephemeris_type": 0,
        "meta_classification_type": "U",
        "meta_norad_cat_id": 41727,
        "meta_element_set_no": 999,
        "meta_rev_at_epoch": 49377,
        "meta_bstar": 3.1898517e-05,
        "meta_mean_motion_dot": 6.2e-07,
        "meta_mean_motion_ddot": 0,
        "tle_line1": "1 41727U 16049A   25360.61056118  .00000062  00000+0  31899-4 0  9996",
        "tle_line2": "2 41727  98.4040   5.9849 0001080  54.2048 305.9242 14.42216892493779"
      },
      "geometry": {
        "type": "Point",
        "coordinates": [
          -168.26552689987486,
          33.358753029366994
        ]
      }
    },
    {
      "type": "Feature",
      "properties": {
        "norad_id": 41771,
        "name": "SKYSAT-C4",
        "group": "resource",
        "lat": 3.3201453318218177,
        "lon": -154.31113968503814,
        "alt_km": 439.9596448951588,
        "timestamp": "2025-12-26T18:39:31.929717+00:00",
        "meta_object_name": "SKYSAT-C4",
        "meta_object_id": "2016-058B",
        "meta_epoch": "2025-12-26T13:13:33.092544",
        "meta_mean_motion": 15.4264534,
        "meta_eccentricity": 0.00026382,
        "meta_inclination": 96.9364,
        "meta_ra_of_asc_node": 25.0687,
        "meta_arg_of_pericenter": 121.6623,
        "meta_mean_anomaly": 238.4883,
        "meta_ephemeris_type": 0,
        "meta_classification_type": "U",
        "meta_norad_cat_id": 41771,
        "meta_element_set_no": 999,
        "meta_rev_at_epoch": 51880,
        "meta_bstar": 0.00036601028,
        "meta_mean_motion_dot": 0.00015874,
        "meta_mean_motion_ddot": 0,
        "tle_line1": "1 41771U 16058B   25360.55107746  .00015874  00000+0  36601-3 0  9994",
        "tle_line2": "2 41771  96.9364  25.0687 0002638 121.6623 238.4883 15.42645340518809"
      },
      "geometry": {
        "type": "Point",
        "coordinates": [
          -154.31113968503814,
          3.3201453318218177
        ]
      }
    },
    {
      "type": "Feature",
      "properties": {
        "norad_id": 41772,
        "name": "SKYSAT-C5",
        "group": "resource",
        "lat": 29.14407120177217,
        "lon": 39.9708604857662,
        "alt_km": 464.91209480120597,
        "timestamp": "2025-12-26T18:39:31.929732+00:00",
        "meta_object_name": "SKYSAT-C5",
        "meta_object_id": "2016-058C",
        "meta_epoch": "2025-12-26T13:50:05.273088",
        "meta_mean_motion": 15.34128046,
        "meta_eccentricity": 0.00040626,
        "meta_inclination": 97.0739,
        "meta_ra_of_asc_node": 43.7488,
        "meta_arg_of_pericenter": 224.1066,
        "meta_mean_anomaly": 135.9854,
        "meta_ephemeris_type": 0,
        "meta_classification_type": "U",
        "meta_norad_cat_id": 41772,
        "meta_element_set_no": 999,
        "meta_rev_at_epoch": 51728,
        "meta_bstar": 0.00030147639,
        "meta_mean_motion_dot": 9.887e-05,
        "meta_mean_motion_ddot": 0,
        "tle_line1": "1 41772U 16058C   25360.57644992  .00009887  00000+0  30148-3 0  9993",
        "tle_line2": "2 41772  97.0739  43.7488 0004062 224.1066 135.9854 15.34128046517287"
      },
      "geometry": {
        "type": "Point",
        "coordinates": [
          39.9708604857662,
          29.14407120177217
        ]
      }
    }
  ]
}